STARLINK-1566           
1 46079U 20055BE  26064.41912116 -.00000003  00000+0  18703-4 0  9997
2 46079  53.0544 115.7920 0001583  95.6843 264.4326 15.06394531308663
STARLINK-1568           
1 46080U 20055BF  26064.83334490  .00080270  00000+0  16033-2 0  9993
2 46080  53.0618  51.3714 0006090 105.5353  26.1167 15.46127240  5731
STARLINK-1578           
1 46082U 20055BH  26064.43386698 -.00001707  00000+0 -95717-4 0  9996
2 46082  53.0525 115.7224 0001504  83.0633 277.0527 15.06401816308662
STARLINK-1579           
1 46083U 20055BJ  26064.53612677 -.00001458  00000+0 -79020-4 0  9999
2 46083  53.0541 115.2553 0001319  90.9669 269.1471 15.06396697308672
STARLINK-1585           
1 46117U 20057A   26064.83334490  .00246742  00000+0  11843-2 0  9998
2 46117  53.0412 266.4536 0003171 139.2966 139.9610 15.81480740  6010
STARLINK-1593           
1 46119U 20057C   26064.83334490  .00100253  00000+0  70781-3 0  9993
2 46119  53.0449 289.5544 0004021 127.2672  74.7024 15.73268421  5995
STARLINK-1621           
1 46127U 20057L   26064.83334490  .00124953  00000+0  78869-3 0  9990
2 46127  53.0449 262.9150 0005336 209.2575 281.2554 15.75755682  5934
STARLINK-1622           
1 46128U 20057M   26064.83334490  .00191335  00000+0  20444-2 0  9994
2 46128  53.0234 243.0932 0006240 161.9493  33.1710 15.62763669  5852
STARLINK-1623           
1 46129U 20057N   26064.32185720  .00107943  00000+0  17862-2 0  9991
2 46129  53.0517 276.9930 0008657 146.6292 213.5264 15.51343312306243
STARLINK-1624           
1 46130U 20057P   26064.83334490  .00122385  00000+0  11204-2 0  9990
2 46130  53.0455 251.3294 0003055 297.9889  79.6416 15.66927253  5980
STARLINK-1625           
1 46131U 20057Q   26064.83334490  .00239905  00000+0  11239-2 0  9996
2 46131  53.0461 267.5869 0006208 198.8427 167.7428 15.82005011  5940
STARLINK-1596           
1 46141U 20057AA  26064.73538611  .00053593  00000+0  11661-2 0  9993
2 46141  53.0428 249.6042 0005108 148.3028 211.8286 15.43795048306662
STARLINK-1597           
1 46142U 20057AB  26064.40793181  .00099032  00000+0  14394-2 0  9997
2 46142  53.0486 317.5714 0007777 132.3473 227.8197 15.54980689305676
STARLINK-1606           
1 46144U 20057AD  26064.83334490  .00157388  00000+0  16697-2 0  9997
2 46144  53.0450 275.3286 0001779 143.3347  99.2466 15.63086319  5801
STARLINK-1608           
1 46146U 20057AF  26064.72459830 -.00002211  00000+0 -62572-4 0  9994
2 46146  53.1604 327.7171 0001696  96.7192 263.4001 15.30184563305578
STARLINK-1667           
1 46155U 20057AQ  26064.83334490  .00178330  00000+0  18766-2 0  9998
2 46155  53.0238 243.6943 0006114 157.7665  95.5178 15.63200917  5918
STARLINK-1545           
1 46156U 20057AR  26064.83334490  .00128102  00000+0  15112-2 0  9993
2 46156  53.0452 277.2621 0001627  63.7656 302.5225 15.60455781  5904
