[{"OBJECT_NAME":"STARLINK-1566","OBJECT_ID":"2020-055BE","EPOCH":"2026-03-05T10:03:32.068224","MEAN_MOTION":15.06394531,"ECCENTRICITY":0.0001583,"INCLINATION":53.0544,"RA_OF_ASC_NODE":115.792,"ARG_OF_PERICENTER":95.6843,"MEAN_ANOMALY":264.4326,"EPHEMERIS_TYPE":0,"CLASSIFICATION_TYPE":"U","NORAD_CAT_ID":46079,"ELEMENT_SET_NO":999,"REV_AT_EPOCH":30866,"BSTAR":1.8703e-5,"MEAN_MOTION_DOT":-3.0e-8,"MEAN_MOTION_DDOT":0},{"OBJECT_NAME":"STARLINK-1568","OBJECT_ID":"2020-055BF","EPOCH":"2026-03-05T20:00:00.999360","MEAN_MOTION":15.4612724,"ECCENTRICITY":0.000609,"INCLINATION":53.0618,"RA_OF_ASC_NODE":51.3714,"ARG_OF_PERICENTER":105.5353,"MEAN_ANOMALY":26.1167,"EPHEMERIS_TYPE":0,"CLASSIFICATION_TYPE":"U","NORAD_CAT_ID":46080,"ELEMENT_SET_NO":999,"REV_AT_EPOCH":573,"BSTAR":0.0016033,"MEAN_MOTION_DOT":0.0008027,"MEAN_MOTION_DDOT":0},{"OBJECT_NAME":"STARLINK-1578","OBJECT_ID":"2020-055BH","EPOCH":"2026-03-05T10:24:46.107072","MEAN_MOTION":15.06401816,"ECCENTRICITY":0.0001504,"INCLINATION":53.0525,"RA_OF_ASC_NODE":115.7224,"ARG_OF_PERICENTER":83.0633,"MEAN_ANOMALY":277.0527,"EPHEMERIS_TYPE":0,"CLASSIFICATION_TYPE":"U","NORAD_CAT_ID":46082,"ELEMENT_SET_NO":999,"REV_AT_EPOCH":30866,"BSTAR":-9.5717e-5,"MEAN_MOTION_DOT":-1.707e-5,"MEAN_MOTION_DDOT":0},{"OBJECT_NAME":"STARLINK-1579","OBJECT_ID":"2020-055BJ","EPOCH":"2026-03-05T12:52:01.352928","MEAN_MOTION":15.06396697,"ECCENTRICITY":0.0001319,"INCLINATION":53.0541,"RA_OF_ASC_NODE":115.2553,"ARG_OF_PERICENTER":90.9669,"MEAN_ANOMALY":269.1471,"EPHEMERIS_TYPE":0,"CLASSIFICATION_TYPE":"U","NORAD_CAT_ID":46083,"ELEMENT_SET_NO":999,"REV_AT_EPOCH":30867,"BSTAR":-7.902e-5,"MEAN_MOTION_DOT":-1.458e-5,"MEAN_MOTION_DDOT":0},{"OBJECT_NAME":"STARLINK-1585","OBJECT_ID":"2020-057A","EPOCH":"2026-03-05T20:00:00.999360","MEAN_MOTION":15.8148074,"ECCENTRICITY":0.0003171,"INCLINATION":53.0412,"RA_OF_ASC_NODE":266.4536,"ARG_OF_PERICENTER":139.2966,"MEAN_ANOMALY":139.961,"EPHEMERIS_TYPE":0,"CLASSIFICATION_TYPE":"U","NORAD_CAT_ID":46117,"ELEMENT_SET_NO":999,"REV_AT_EPOCH":601,"BSTAR":0.0011843,"MEAN_MOTION_DOT":0.00246742,"MEAN_MOTION_DDOT":0},{"OBJECT_NAME":"STARLINK-1593","OBJECT_ID":"2020-057C","EPOCH":"2026-03-05T20:00:00.999360","MEAN_MOTION":15.73268421,"ECCENTRICITY":0.0004021,"INCLINATION":53.0449,"RA_OF_ASC_NODE":289.5544,"ARG_OF_PERICENTER":127.2672,"MEAN_ANOMALY":74.7024,"EPHEMERIS_TYPE":0,"CLASSIFICATION_TYPE":"U","NORAD_CAT_ID":46119,"ELEMENT_SET_NO":999,"REV_AT_EPOCH":599,"BSTAR":0.00070781,"MEAN_MOTION_DOT":0.00100253,"MEAN_MOTION_DDOT":0},{"OBJECT_NAME":"STARLINK-1621","OBJECT_ID":"2020-057L","EPOCH":"2026-03-05T20:00:00.999360","MEAN_MOTION":15.75755682,"ECCENTRICITY":0.0005336,"INCLINATION":53.0449,"RA_OF_ASC_NODE":262.915,"ARG_OF_PERICENTER":209.2575,"MEAN_ANOMALY":281.2554,"EPHEMERIS_TYPE":0,"CLASSIFICATION_TYPE":"U","NORAD_CAT_ID":46127,"ELEMENT_SET_NO":999,"REV_AT_EPOCH":593,"BSTAR":0.00078869,"MEAN_MOTION_DOT":0.00124953,"MEAN_MOTION_DDOT":0},{"OBJECT_NAME":"STARLINK-1622","OBJECT_ID":"2020-057M","EPOCH":"2026-03-05T20:00:00.999360","MEAN_MOTION":15.62763669,"ECCENTRICITY":0.000624,"INCLINATION":53.0234,"RA_OF_ASC_NODE":243.0932,"ARG_OF_PERICENTER":161.9493,"MEAN_ANOMALY":33.171,"EPHEMERIS_TYPE":0,"CLASSIFICATION_TYPE":"U","NORAD_CAT_ID":46128,"ELEMENT_SET_NO":999,"REV_AT_EPOCH":585,"BSTAR":0.0020444,"MEAN_MOTION_DOT":0.00191335,"MEAN_MOTION_DDOT":0},{"OBJECT_NAME":"STARLINK-1623","OBJECT_ID":"2020-057N","EPOCH":"2026-03-05T07:43:28.462080","MEAN_MOTION":15.51343312,"ECCENTRICITY":0.0008657,"INCLINATION":53.0517,"RA_OF_ASC_NODE":276.993,"ARG_OF_PERICENTER":146.6292,"MEAN_ANOMALY":213.5264,"EPHEMERIS_TYPE":0,"CLASSIFICATION_TYPE":"U","NORAD_CAT_ID":46129,"ELEMENT_SET_NO":999,"REV_AT_EPOCH":30624,"BSTAR":0.0017862,"MEAN_MOTION_DOT":0.00107943,"MEAN_MOTION_DDOT":0},{"OBJECT_NAME":"STARLINK-1624","OBJECT_ID":"2020-057P","EPOCH":"2026-03-05T20:00:00.999360","MEAN_MOTION":15.66927253,"ECCENTRICITY":0.0003055,"INCLINATION":53.0455,"RA_OF_ASC_NODE":251.3294,"ARG_OF_PERICENTER":297.9889,"MEAN_ANOMALY":79.6416,"EPHEMERIS_TYPE":0,"CLASSIFICATION_TYPE":"U","NORAD_CAT_ID":46130,"ELEMENT_SET_NO":999,"REV_AT_EPOCH":598,"BSTAR":0.0011204,"MEAN_MOTION_DOT":0.00122385,"MEAN_MOTION_DDOT":0},{"OBJECT_NAME":"STARLINK-1625","OBJECT_ID":"2020-057Q","EPOCH":"2026-03-05T20:00:00.999360","MEAN_MOTION":15.82005011,"ECCENTRICITY":0.0006208,"INCLINATION":53.0461,"RA_OF_ASC_NODE":267.5869,"ARG_OF_PERICENTER":198.8427,"MEAN_ANOMALY":167.7428,"EPHEMERIS_TYPE":0,"CLASSIFICATION_TYPE":"U","NORAD_CAT_ID":46131,"ELEMENT_SET_NO":999,"REV_AT_EPOCH":594,"BSTAR":0.0011239,"MEAN_MOTION_DOT":0.00239905,"MEAN_MOTION_DDOT":0},{"OBJECT_NAME":"STARLINK-1596","OBJECT_ID":"2020-057AA","EPOCH":"2026-03-05T17:38:57.359904","MEAN_MOTION":15.43795048,"ECCENTRICITY":0.0005108,"INCLINATION":53.0428,"RA_OF_ASC_NODE":249.6042,"ARG_OF_PERICENTER":148.3028,"MEAN_ANOMALY":211.8286,"EPHEMERIS_TYPE":0,"CLASSIFICATION_TYPE":"U","NORAD_CAT_ID":46141,"ELEMENT_SET_NO":999,"REV_AT_EPOCH":30666,"BSTAR":0.0011661,"MEAN_MOTION_DOT":0.00053593,"MEAN_MOTION_DDOT":0},{"OBJECT_NAME":"STARLINK-1597","OBJECT_ID":"2020-057AB","EPOCH":"2026-03-05T09:47:25.308384","MEAN_MOTION":15.54980689,"ECCENTRICITY":0.0007777,"INCLINATION":53.0486,"RA_OF_ASC_NODE":317.5714,"ARG_OF_PERICENTER":132.3473,"MEAN_ANOMALY":227.8197,"EPHEMERIS_TYPE":0,"CLASSIFICATION_TYPE":"U","NORAD_CAT_ID":46142,"ELEMENT_SET_NO":999,"REV_AT_EPOCH":30567,"BSTAR":0.0014394,"MEAN_MOTION_DOT":0.00099032,"MEAN_MOTION_DDOT":0},{"OBJECT_NAME":"STARLINK-1606","OBJECT_ID":"2020-057AD","EPOCH":"2026-03-05T20:00:00.999360","MEAN_MOTION":15.63086319,"ECCENTRICITY":0.0001779,"INCLINATION":53.045,"RA_OF_ASC_NODE":275.3286,"ARG_OF_PERICENTER":143.3347,"MEAN_ANOMALY":99.2466,"EPHEMERIS_TYPE":0,"CLASSIFICATION_TYPE":"U","NORAD_CAT_ID":46144,"ELEMENT_SET_NO":999,"REV_AT_EPOCH":580,"BSTAR":0.0016697,"MEAN_MOTION_DOT":0.00157388,"MEAN_MOTION_DDOT":0},{"OBJECT_NAME":"STARLINK-1608","OBJECT_ID":"2020-057AF","EPOCH":"2026-03-05T17:23:25.293120","MEAN_MOTION":15.30184563,"ECCENTRICITY":0.0001696,"INCLINATION":53.1604,"RA_OF_ASC_NODE":327.7171,"ARG_OF_PERICENTER":96.7192,"MEAN_ANOMALY":263.4001,"EPHEMERIS_TYPE":0,"CLASSIFICATION_TYPE":"U","NORAD_CAT_ID":46146,"ELEMENT_SET_NO":999,"REV_AT_EPOCH":30557,"BSTAR":-6.2572e-5,"MEAN_MOTION_DOT":-2.211e-5,"MEAN_MOTION_DDOT":0},{"OBJECT_NAME":"STARLINK-1667","OBJECT_ID":"2020-057AQ","EPOCH":"2026-03-05T20:00:00.999360","MEAN_MOTION":15.63200917,"ECCENTRICITY":0.0006114,"INCLINATION":53.0238,"RA_OF_ASC_NODE":243.6943,"ARG_OF_PERICENTER":157.7665,"MEAN_ANOMALY":95.5178,"EPHEMERIS_TYPE":0,"CLASSIFICATION_TYPE":"U","NORAD_CAT_ID":46155,"ELEMENT_SET_NO":999,"REV_AT_EPOCH":591,"BSTAR":0.0018766,"MEAN_MOTION_DOT":0.0017833,"MEAN_MOTION_DDOT":0},{"OBJECT_NAME":"STARLINK-1545","OBJECT_ID":"2020-057AR","EPOCH":"2026-03-05T20:00:00.999360","MEAN_MOTION":15.60455781,"ECCENTRICITY":0.0001627,"INCLINATION":53.0452,"RA_OF_ASC_NODE":277.2621,"ARG_OF_PERICENTER":63.7656,"MEAN_ANOMALY":302.5225,"EPHEMERIS_TYPE":0,"CLASSIFICATION_TYPE":"U","NORAD_CAT_ID":46156,"ELEMENT_SET_NO":999,"REV_AT_EPOCH":590,"BSTAR":0.0015112,"MEAN_MOTION_DOT":0.00128102,"MEAN_MOTION_DDOT":0}]
